{
  "type": "FeatureCollection",
  "features": [
    {
      "type": "Feature",
      "properties": {
        "norad_id": 44794,
        "name": "BEIDOU-3 M21 (C43)",
        "group": "beidou",
        "lat": -52.12619340782463,
        "lon": -165.4133425121759,
        "alt_km": 21539.211850051273,
        "timestamp": "2025-12-23T11:34:48.430016+00:00",
        "meta_object_name": "BEIDOU-3 M21 (C43)",
        "meta_object_id": "2019-078B",
        "meta_epoch": "2025-12-22T00:36:11.320992",
        "meta_mean_motion": 1.86227906,
        "meta_eccentricity": 0.00042988,
        "meta_inclination": 54.0732,
        "meta_ra_of_asc_node": 306.0255,
        "meta_arg_of_pericenter": 12.7951,
        "meta_mean_anomaly": 347.2162,
        "meta_ephemeris_type": 0,
        "meta_classification_type": "U",
        "meta_norad_cat_id": 44794,
        "meta_element_set_no": 999,
        "meta_rev_at_epoch": 4135,
        "meta_bstar": 0,
        "meta_mean_motion_dot": -5.8e-07,
        "meta_mean_motion_ddot": 0,
        "tle_line1": "1 44794U 19078B   25356.02513103 -.00000058  00000+0  00000+0 0  9991",
        "tle_line2": "2 44794  54.0732 306.0255 0004298  12.7951 347.2162  1.86227906 41359"
      },
      "geometry": {
        "type": "Point",
        "coordinates": [
          -165.4133425121759,
          -52.12619340782463
        ]
      }
    },
    {
      "type": "Feature",
      "properties": {
        "norad_id": 44864,
        "name": "BEIDOU-3 M19 (C41)",
        "group": "beidou",
        "lat": 56.304834166903234,
        "lon": 163.97607299277192,
        "alt_km": 21571.534990302425,
        "timestamp": "2025-12-23T11:34:48.430026+00:00",
        "meta_object_name": "BEIDOU-3 M19 (C41)",
        "meta_object_id": "2019-090A",
        "meta_epoch": "2025-12-22T08:14:48.901056",
        "meta_mean_motion": 1.86231645,
        "meta_eccentricity": 0.00183489,
        "meta_inclination": 56.4008,
        "meta_ra_of_asc_node": 68.6432,
        "meta_arg_of_pericenter": 285.1191,
        "meta_mean_anomaly": 124.2655,
        "meta_ephemeris_type": 0,
        "meta_classification_type": "U",
        "meta_norad_cat_id": 44864,
        "meta_element_set_no": 999,
        "meta_rev_at_epoch": 4094,
        "meta_bstar": 0,
        "meta_mean_motion_dot": -2.9e-07,
        "meta_mean_motion_ddot": 0,
        "tle_line1": "1 44864U 19090A   25356.34362154 -.00000029  00000+0  00000+0 0  9994",
        "tle_line2": "2 44864  56.4008  68.6432 0018348 285.1191 124.2655  1.86231645 40949"
      },
      "geometry": {
        "type": "Point",
        "coordinates": [
          163.97607299277192,
          56.304834166903234
        ]
      }
    },
    {
      "type": "Feature",
      "properties": {
        "norad_id": 44865,
        "name": "BEIDOU-3 M20 (C42)",
        "group": "beidou",
        "lat": -1.9973506244029688,
        "lon": -110.01447344677999,
        "alt_km": 21546.693020147035,
        "timestamp": "2025-12-23T11:34:48.430035+00:00",
        "meta_object_name": "BEIDOU-3 M20 (C42)",
        "meta_object_id": "2019-090B",
        "meta_epoch": "2025-12-23T05:19:57.001728",
        "meta_mean_motion": 1.86231582,
        "meta_eccentricity": 0.0015508,
        "meta_inclination": 56.4032,
        "meta_ra_of_asc_node": 68.6485,
        "meta_arg_of_pericenter": 297.2888,
        "meta_mean_anomaly": 70.7426,
        "meta_ephemeris_type": 0,
        "meta_classification_type": "U",
        "meta_norad_cat_id": 44865,
        "meta_element_set_no": 999,
        "meta_rev_at_epoch": 4094,
        "meta_bstar": 0,
        "meta_mean_motion_dot": -2.6e-07,
        "meta_mean_motion_ddot": 0,
        "tle_line1": "1 44865U 19090B   25357.22218752 -.00000026  00000+0  00000+0 0  9994",
        "tle_line2": "2 44865  56.4032  68.6485 0015508 297.2888  70.7426  1.86231582 40948"
      },
      "geometry": {
        "type": "Point",
        "coordinates": [
          -110.01447344677999,
          -1.9973506244029688
        ]
      }
    },
    {
      "type": "Feature",
      "properties": {
        "norad_id": 45344,
        "name": "BEIDOU-3 G2 (C60)",
        "group": "beidou",
        "lat": -2.1426358151861593,
        "lon": -13.940765873671163,
        "alt_km": 35782.908827166204,
        "timestamp": "2025-12-23T11:34:48.430045+00:00",
        "meta_object_name": "BEIDOU-3 G2 (C60)",
        "meta_object_id": "2020-017A",
        "meta_epoch": "2025-12-19T13:38:45.370752",
        "meta_mean_motion": 1.00273166,
        "meta_eccentricity": 0.0002079,
        "meta_inclination": 2.5096,
        "meta_ra_of_asc_node": 44.0024,
        "meta_arg_of_pericenter": 233.0917,
        "meta_mean_anomaly": 96.0359,
        "meta_ephemeris_type": 0,
        "meta_classification_type": "U",
        "meta_norad_cat_id": 45344,
        "meta_element_set_no": 999,
        "meta_rev_at_epoch": 2145,
        "meta_bstar": 0,
        "meta_mean_motion_dot": -1.18e-06,
        "meta_mean_motion_ddot": 0,
        "tle_line1": "1 45344U 20017A   25353.56858068 -.00000118  00000+0  00000+0 0  9993",
        "tle_line2": "2 45344   2.5096  44.0024 0002079 233.0917  96.0359  1.00273166 21451"
      },
      "geometry": {
        "type": "Point",
        "coordinates": [
          -13.940765873671163,
          -2.1426358151861593
        ]
      }
    },
    {
      "type": "Feature",
      "properties": {
        "norad_id": 45807,
        "name": "BEIDOU-3 G3 (C61)",
        "group": "beidou",
        "lat": -1.5457571942117632,
        "lon": 16.53991731244973,
        "alt_km": 35759.66592107002,
        "timestamp": "2025-12-23T11:34:48.430056+00:00",
        "meta_object_name": "BEIDOU-3 G3 (C61)",
        "meta_object_id": "2020-040A",
        "meta_epoch": "2025-12-22T22:15:02.225376",
        "meta_mean_motion": 1.00269046,
        "meta_eccentricity": 0.00065459,
        "meta_inclination": 2.0143,
        "meta_ra_of_asc_node": 66.6672,
        "meta_arg_of_pericenter": 309.2145,
        "meta_mean_anomaly": 160.1609,
        "meta_ephemeris_type": 0,
        "meta_classification_type": "U",
        "meta_norad_cat_id": 45807,
        "meta_element_set_no": 999,
        "meta_rev_at_epoch": 2030,
        "meta_bstar": 0,
        "meta_mean_motion_dot": -3.33e-06,
        "meta_mean_motion_ddot": 0,
        "tle_line1": "1 45807U 20040A   25356.92710909 -.00000333  00000+0  00000+0 0  9996",
        "tle_line2": "2 45807   2.0143  66.6672 0006545 309.2145 160.1609  1.00269046 20309"
      },
      "geometry": {
        "type": "Point",
        "coordinates": [
          16.53991731244973,
          -1.5457571942117632
        ]
      }
    },
    {
      "type": "Feature",
      "properties": {
        "norad_id": 56564,
        "name": "BEIDOU-3 G4 (C62)",
        "group": "beidou",
        "lat": 0.6837775370935721,
        "lon": 65.99610006325645,
        "alt_km": 35788.84099502336,
        "timestamp": "2025-12-23T11:34:48.430067+00:00",
        "meta_object_name": "BEIDOU-3 G4 (C62)",
        "meta_object_id": "2023-066A",
        "meta_epoch": "2025-12-23T03:59:38.783904",
        "meta_mean_motion": 1.00271181,
        "meta_eccentricity": 0.0002645,
        "meta_inclination": 0.7935,
        "meta_ra_of_asc_node": 302.8492,
        "meta_arg_of_pericenter": 227.2002,
        "meta_mean_anomaly": 141.8808,
        "meta_ephemeris_type": 0,
        "meta_classification_type": "U",
        "meta_norad_cat_id": 56564,
        "meta_element_set_no": 999,
        "meta_rev_at_epoch": 963,
        "meta_bstar": 0,
        "meta_mean_motion_dot": -8.9e-07,
        "meta_mean_motion_ddot": 0,
        "tle_line1": "1 56564U 23066A   25357.16642111 -.00000089  00000+0  00000+0 0  9993",
        "tle_line2": "2 56564   0.7935 302.8492 0002645 227.2002 141.8808  1.00271181  9631"
      },
      "geometry": {
        "type": "Point",
        "coordinates": [
          65.99610006325645,
          0.6837775370935721
        ]
      }
    },
    {
      "type": "Feature",
      "properties": {
        "norad_id": 58654,
        "name": "BEIDOU-3 M28 (C50)",
        "group": "beidou",
        "lat": -20.137999188861542,
        "lon": -97.20790716381238,
        "alt_km": 21528.23859289362,
        "timestamp": "2025-12-23T11:34:48.430077+00:00",
        "meta_object_name": "BEIDOU-3 M28 (C50)",
        "meta_object_id": "2023-207A",
        "meta_epoch": "2025-12-22T15:21:59.062752",
        "meta_mean_motion": 1.86229735,
        "meta_eccentricity": 0.0002827,
        "meta_inclination": 55.5928,
        "meta_ra_of_asc_node": 68.2662,
        "meta_arg_of_pericenter": 274.5926,
        "meta_mean_anomaly": 85.4262,
        "meta_ephemeris_type": 0,
        "meta_classification_type": "U",
        "meta_norad_cat_id": 58654,
        "meta_element_set_no": 999,
        "meta_rev_at_epoch": 1355,
        "meta_bstar": 0,
        "meta_mean_motion_dot": -3e-07,
        "meta_mean_motion_ddot": 0,
        "tle_line1": "1 58654U 23207A   25356.64026693 -.00000030  00000+0  00000+0 0  9991",
        "tle_line2": "2 58654  55.5928  68.2662 0002827 274.5926  85.4262  1.86229735 13552"
      },
      "geometry": {
        "type": "Point",
        "coordinates": [
          -97.20790716381238,
          -20.137999188861542
        ]
      }
    }
  ]
}